format  = 'OEF1.1'       ! file format
rectype = 'ML'           ! record type (1L/ML)
refsys  = ECLM J2000     ! default reference system
END_OF_HEADER
1998OX4
! Equinoctial elements: a, e*sin(LP), e*cos(LP), tan(i/2)*sin(LN), tan(i/2)*cos(LN), mean long.
 EQU   1.58576926346879E+00  0.408110303336915  0.267038143056586 -0.034316196627073  0.019962688282979 359.1268739558942
 MJD     52470.00000000 TDT
 MAG  21.328  0.150
! RMS    2.13232E-02   9.04589E-03   4.45214E-03   8.54844E-04   6.18948E-04   1.32510E+01
! EIG   2.17931E-08   1.41737E-07   4.75827E-06   2.21113E-05   1.56858E-04   2.32476E-01
! WEA  -0.09172  -0.03891  -0.01914   0.00367  -0.00266   0.99483
 COV   4.546790498175282E-04  1.928850583102474E-04  9.488327123756643E-05
 COV  -1.821300759335878E-05  1.318786450393841E-05 -2.825547210311824E-01
 COV   8.182804446037678E-05  4.024608475847209E-05 -7.727662835856342E-06
 COV   5.595490588394359E-06 -1.198661837531970E-01  1.982155244257031E-05
 COV  -3.795714485926450E-06  2.748579671485957E-06 -5.896337695121391E-02
 COV   7.307588002930558E-07 -5.291033949530243E-07  1.131841031406975E-02
 COV   3.830964971371981E-07 -8.195548161871633E-03  1.755901932669351E+02
 NOR   2.025425781518389E+15 -3.198265581113881E+14 -1.776138299387639E+14
 NOR  -1.151226300165393E+13 -1.426177503097893E+13  2.981362023632258E+12
 NOR   5.050456208037487E+13  2.804791940058978E+13  1.782479716706130E+12
 NOR   2.208401590473925E+12 -4.707722508856766E+11  1.559293639185014E+13
 NOR   4.829009761877402E+11  6.001348873073077E+11 -2.614312525406486E+11
 NOR   1.911358077924789E+13  2.424438016231875E+13 -1.724669843761549E+10
 NOR   3.085908596159057E+13 -2.136300360702142E+10  4.388476836935427E+09
